PANDORA
1 67395U 80229J   26116.67843750  .00000000  00000-0  37770-3 0    07
2 67395  97.8048 116.1409 0003771 308.2398 145.2613 14.87977354    08
